{
"type": "FeatureCollection",
"name": "mapa_read",
"crs": { "type": "name", "properties": { "name": "urn:ogc:def:crs:OGC:1.3:CRS84" } },
"features": [
{ "type": "Feature", "properties": { "IDENTIFICA": "00101", "SETOR": "01", "APELIDO": "01", "MACROSETOR": "RIO CLARO - DOMICILIAR", "COR": 0.0, "FREQUENCIA": "TER, QUI E SAB - NOTURNO" }, "geometry": { "type": "Polygon", "coordinates": [ [ [ -47.574593, -22.399233 ], [ -47.573775, -22.398946 ], [ -47.572884, -22.398655 ], [ -47.571828, -22.398322 ], [ -47.570988, -22.398056 ], [ -47.569618, -22.397609 ], [ -47.569176, -22.397465 ], [ -47.567798, -22.397036 ], [ -47.566948, -22.396788 ], [ -47.566685, -22.396712 ], [ -47.566519, -22.396656 ], [ -47.565646, -22.39642 ], [ -47.564425, -22.39602 ], [ -47.564272, -22.395976 ], [ -47.564211, -22.395955 ], [ -47.563047, -22.395606 ], [ -47.563029, -22.395806 ], [ -47.563021, -22.396073 ], [ -47.563149, -22.39713 ], [ -47.563353, -22.398674 ], [ -47.563492, -22.399212 ], [ -47.563735, -22.399632 ], [ -47.563744, -22.399647 ], [ -47.563806, -22.399753 ], [ -47.563875, -22.399873 ], [ -47.56396, -22.400022 ], [ -47.564137, -22.400306 ], [ -47.564212, -22.40046 ], [ -47.564252, -22.400541 ], [ -47.564352, -22.400748 ], [ -47.564448, -22.400946 ], [ -47.564535, -22.401124 ], [ -47.564661, -22.401418 ], [ -47.564801, -22.401746 ], [ -47.564903, -22.401984 ], [ -47.564987, -22.40238 ], [ -47.565125, -22.403036 ], [ -47.565141, -22.403148 ], [ -47.565234, -22.403831 ], [ -47.565179, -22.404784 ], [ -47.565069, -22.405224 ], [ -47.56486, -22.405693 ], [ -47.564463, -22.406517 ], [ -47.564676, -22.407428 ], [ -47.564869, -22.408257 ], [ -47.564932, -22.408554 ], [ -47.565905, -22.409688 ], [ -47.56673, -22.410776 ], [ -47.567598, -22.411225 ], [ -47.568496, -22.412105 ], [ -47.569772, -22.413397 ], [ -47.569863, -22.413497 ], [ -47.569866, -22.413492 ], [ -47.569868, -22.413487 ], [ -47.569871, -22.413479 ], [ -47.570741, -22.411426 ], [ -47.571687, -22.409221 ], [ -47.572739, -22.406601 ], [ -47.574221, -22.40304 ], [ -47.575334, -22.400198 ], [ -47.575406, -22.400053 ], [ -47.575404, -22.400053 ], [ -47.575391, -22.400054 ], [ -47.574944, -22.400093 ], [ -47.574821, -22.399615 ], [ -47.574517, -22.399377 ], [ -47.574521, -22.39937 ], [ -47.574593, -22.399233 ] ] ] } },
{ "type": "Feature", "properties": { "IDENTIFICA": "00102", "SETOR": "02", "APELIDO": "02", "MACROSETOR": "RIO CLARO - DOMICILIAR", "COR": 0.0, "FREQUENCIA": "TER, QUI E SAB - NOTURNO" }, "geometry": { "type": "Polygon", "coordinates": [ [ [ -47.575334, -22.400198 ], [ -47.574221, -22.40304 ], [ -47.572739, -22.406601 ], [ -47.571687, -22.409221 ], [ -47.570741, -22.411426 ], [ -47.569871, -22.413479 ], [ -47.569868, -22.413487 ], [ -47.569866, -22.413492 ], [ -47.569863, -22.413497 ], [ -47.56996, -22.413647 ], [ -47.569139, -22.4158 ], [ -47.568795, -22.416575 ], [ -47.569544, -22.416859 ], [ -47.569906, -22.417004 ], [ -47.571615, -22.417595 ], [ -47.573492, -22.418271 ], [ -47.576355, -22.419289 ], [ -47.577634, -22.419878 ], [ -47.577647, -22.419881 ], [ -47.578041, -22.419101 ], [ -47.578158, -22.41887 ], [ -47.57914, -22.41709 ], [ -47.582473, -22.412765 ], [ -47.583063, -22.412086 ], [ -47.58861, -22.405577 ], [ -47.588594, -22.405578 ], [ -47.585888, -22.405792 ], [ -47.584511, -22.405902 ], [ -47.58419, -22.405917 ], [ -47.584265, -22.404868 ], [ -47.584319, -22.404115 ], [ -47.584326, -22.401545 ], [ -47.58341, -22.400694 ], [ -47.583398, -22.400697 ], [ -47.582961, -22.400801 ], [ -47.58244, -22.400871 ], [ -47.582197, -22.400887 ], [ -47.581022, -22.400799 ], [ -47.579866, -22.400741 ], [ -47.579455, -22.400642 ], [ -47.579089, -22.400506 ], [ -47.58039, -22.396705 ], [ -47.577319, -22.39556 ], [ -47.575732, -22.399303 ], [ -47.575334, -22.400198 ] ] ] } },
{ "type": "Feature", "properties": { "IDENTIFICA": "00103", "SETOR": "03", "APELIDO": "03", "MACROSETOR": "RIO CLARO - DOMICILIAR", "COR": 0.0, "FREQUENCIA": "SEG, QUA E SEX - NOTURNO" }, "geometry": { "type": "Polygon", "coordinates": [ [ [ -47.554778, -22.426788 ], [ -47.554763, -22.426817 ], [ -47.554771, -22.426796 ], [ -47.554085, -22.427584 ], [ -47.554011, -22.428504 ], [ -47.553857, -22.429718 ], [ -47.553596, -22.430843 ], [ -47.553513, -22.432706 ], [ -47.554155, -22.434828 ], [ -47.554586, -22.43645 ], [ -47.555401, -22.438687 ], [ -47.557567, -22.439977 ], [ -47.556948, -22.442045 ], [ -47.557418, -22.443944 ], [ -47.561313, -22.444052 ], [ -47.563956, -22.444097 ], [ -47.564954, -22.442906 ], [ -47.566368, -22.441012 ], [ -47.568483, -22.437792 ], [ -47.569447, -22.436014 ], [ -47.569992, -22.43501 ], [ -47.569773, -22.434733 ], [ -47.569005, -22.433795 ], [ -47.568497, -22.433174 ], [ -47.56753, -22.432023 ], [ -47.566479, -22.430743 ], [ -47.565662, -22.429748 ], [ -47.56459, -22.428407 ], [ -47.564152, -22.427859 ], [ -47.564732, -22.426436 ], [ -47.567035, -22.420795 ], [ -47.565212, -22.420182 ], [ -47.564499, -22.419939 ], [ -47.564083, -22.419803 ], [ -47.563507, -22.419612 ], [ -47.563121, -22.419484 ], [ -47.562818, -22.41938 ], [ -47.562475, -22.419275 ], [ -47.561323, -22.418897 ], [ -47.56042, -22.418602 ], [ -47.558766, -22.418072 ], [ -47.55812, -22.417861 ], [ -47.554771, -22.426796 ], [ -47.554778, -22.426788 ] ] ] } },
{ "type": "Feature", "properties": { "IDENTIFICA": "00104", "SETOR": "04", "APELIDO": "04", "MACROSETOR": "RIO CLARO - DOMICILIAR", "COR": 0.0, "FREQUENCIA": "SEG, QUA E SEX - NOTURNO" }, "geometry": { "type": "Polygon", "coordinates": [ [ [ -47.551899, -22.409621 ], [ -47.551101, -22.40758 ], [ -47.551148, -22.406956 ], [ -47.551104, -22.406842 ], [ -47.551081, -22.406801 ], [ -47.549522, -22.40683 ], [ -47.548031, -22.406873 ], [ -47.54689, -22.407165 ], [ -47.544432, -22.407965 ], [ -47.543013, -22.408498 ], [ -47.542999, -22.409788 ], [ -47.54444, -22.411276 ], [ -47.545544, -22.413677 ], [ -47.542567, -22.424926 ], [ -47.536853, -22.429199 ], [ -47.537621, -22.433377 ], [ -47.539062, -22.43621 ], [ -47.539974, -22.438083 ], [ -47.541354, -22.439061 ], [ -47.542097, -22.439835 ], [ -47.542823, -22.440892 ], [ -47.543642, -22.442489 ], [ -47.544632, -22.444127 ], [ -47.545634, -22.446104 ], [ -47.546937, -22.446102 ], [ -47.549914, -22.444085 ], [ -47.552363, -22.442404 ], [ -47.554586, -22.43645 ], [ -47.554155, -22.434828 ], [ -47.553513, -22.432706 ], [ -47.553596, -22.430843 ], [ -47.553857, -22.429718 ], [ -47.554011, -22.428504 ], [ -47.554087, -22.427584 ], [ -47.554777, -22.426783 ], [ -47.55538, -22.425172 ], [ -47.556189, -22.423022 ], [ -47.55812, -22.417861 ], [ -47.557116, -22.417524 ], [ -47.555295, -22.416933 ], [ -47.554475, -22.416766 ], [ -47.552901, -22.416488 ], [ -47.553536, -22.414938 ], [ -47.554608, -22.413751 ], [ -47.556823, -22.412043 ], [ -47.557314, -22.410991 ], [ -47.558468, -22.407819 ], [ -47.55916, -22.406082 ], [ -47.558512, -22.405845 ], [ -47.558346, -22.406255 ], [ -47.558189, -22.406647 ], [ -47.557862, -22.407459 ], [ -47.557406, -22.408591 ], [ -47.557012, -22.40957 ], [ -47.556568, -22.410675 ], [ -47.55621, -22.411566 ], [ -47.554971, -22.411133 ], [ -47.554124, -22.410835 ], [ -47.552793, -22.410316 ], [ -47.551929, -22.409642 ], [ -47.551899, -22.409621 ] ] ] } },
{ "type": "Feature", "properties": { "IDENTIFICA": "00105", "SETOR": "05", "APELIDO": "05", "MACROSETOR": "RIO CLARO - DOMICILIAR", "COR": 0.0, "FREQUENCIA": "SEG, QUA E SEX - NOTURNO" }, "geometry": { "type": "Polygon", "coordinates": [ [ [ -47.548978, -22.384695 ], [ -47.548298, -22.385122 ], [ -47.547992, -22.384719 ], [ -47.547904, -22.384607 ], [ -47.547812, -22.384486 ], [ -47.547571, -22.384165 ], [ -47.546671, -22.384406 ], [ -47.545706, -22.384684 ], [ -47.544732, -22.384969 ], [ -47.543563, -22.385321 ], [ -47.54241, -22.386056 ], [ -47.542352, -22.386558 ], [ -47.542175, -22.386759 ], [ -47.542175, -22.387628 ], [ -47.54233, -22.388054 ], [ -47.542563, -22.38842 ], [ -47.543021, -22.388823 ], [ -47.54455, -22.389677 ], [ -47.5459, -22.390472 ], [ -47.546471, -22.390966 ], [ -47.546914, -22.391406 ], [ -47.547375, -22.392044 ], [ -47.54741, -22.39209 ], [ -47.547826, -22.392628 ], [ -47.548352, -22.393302 ], [ -47.548748, -22.393812 ], [ -47.549328, -22.394556 ], [ -47.549594, -22.394898 ], [ -47.549776, -22.395132 ], [ -47.550061, -22.395497 ], [ -47.550113, -22.395606 ], [ -47.550893, -22.395226 ], [ -47.553606, -22.394408 ], [ -47.555641, -22.393873 ], [ -47.556311, -22.393714 ], [ -47.556987, -22.395728 ], [ -47.557124, -22.396144 ], [ -47.557322, -22.396776 ], [ -47.557633, -22.397741 ], [ -47.557962, -22.397883 ], [ -47.558612, -22.398093 ], [ -47.55961, -22.398391 ], [ -47.55968, -22.398421 ], [ -47.559704, -22.398353 ], [ -47.56048, -22.398606 ], [ -47.561112, -22.398812 ], [ -47.561739, -22.399016 ], [ -47.563743, -22.399648 ], [ -47.563377, -22.398775 ], [ -47.563148, -22.397131 ], [ -47.56302, -22.396074 ], [ -47.563028, -22.395807 ], [ -47.563046, -22.395607 ], [ -47.562022, -22.395285 ], [ -47.560797, -22.394901 ], [ -47.560147, -22.394843 ], [ -47.560069, -22.394783 ], [ -47.559175, -22.391101 ], [ -47.558974, -22.390256 ], [ -47.558679, -22.389014 ], [ -47.558455, -22.38804 ], [ -47.558275, -22.387258 ], [ -47.55819, -22.386897 ], [ -47.557942, -22.385793 ], [ -47.557408, -22.385896 ], [ -47.553308, -22.386766 ], [ -47.55286, -22.386227 ], [ -47.551708, -22.38484 ], [ -47.551091, -22.38422 ], [ -47.550485, -22.383634 ], [ -47.549943, -22.384004 ], [ -47.54989, -22.384044 ], [ -47.549637, -22.384233 ], [ -47.549236, -22.384532 ], [ -47.549096, -22.384621 ], [ -47.548978, -22.384695 ] ] ] } },
{ "type": "Feature", "properties": { "IDENTIFICA": "00106", "SETOR": "06", "APELIDO": "06", "MACROSETOR": "RIO CLARO - DOMICILIAR", "COR": 0.0, "FREQUENCIA": "TER, QUI E SAB - NOTURNO" }, "geometry": { "type": "Polygon", "coordinates": [ [ [ -47.537223, -22.390612 ], [ -47.543009, -22.408498 ], [ -47.544428, -22.407965 ], [ -47.546886, -22.407165 ], [ -47.548027, -22.406873 ], [ -47.549518, -22.40683 ], [ -47.551077, -22.406801 ], [ -47.551144, -22.406952 ], [ -47.551095, -22.407574 ], [ -47.551895, -22.409621 ], [ -47.552789, -22.410316 ], [ -47.554124, -22.410835 ], [ -47.554971, -22.411133 ], [ -47.55621, -22.411566 ], [ -47.556568, -22.410675 ], [ -47.557012, -22.40957 ], [ -47.557406, -22.408591 ], [ -47.557862, -22.407459 ], [ -47.558189, -22.406647 ], [ -47.558346, -22.406255 ], [ -47.558512, -22.405845 ], [ -47.558619, -22.405578 ], [ -47.558603, -22.404963 ], [ -47.558624, -22.404458 ], [ -47.559195, -22.402688 ], [ -47.559818, -22.400253 ], [ -47.559416, -22.399728 ], [ -47.55944, -22.39908 ], [ -47.55961, -22.398613 ], [ -47.559681, -22.398419 ], [ -47.559611, -22.39839 ], [ -47.558613, -22.398092 ], [ -47.557963, -22.397882 ], [ -47.557634, -22.39774 ], [ -47.557126, -22.396143 ], [ -47.556989, -22.395727 ], [ -47.556828, -22.395238 ], [ -47.556312, -22.393713 ], [ -47.555642, -22.393871 ], [ -47.555031, -22.394024 ], [ -47.553607, -22.394406 ], [ -47.550894, -22.395225 ], [ -47.550114, -22.395604 ], [ -47.550062, -22.395496 ], [ -47.549778, -22.395131 ], [ -47.549595, -22.394896 ], [ -47.549329, -22.394554 ], [ -47.548749, -22.39381 ], [ -47.548354, -22.393301 ], [ -47.547828, -22.392627 ], [ -47.547412, -22.392089 ], [ -47.547376, -22.392043 ], [ -47.546935, -22.391391 ], [ -47.546472, -22.390964 ], [ -47.545901, -22.39047 ], [ -47.544547, -22.389676 ], [ -47.543018, -22.388822 ], [ -47.54256, -22.388419 ], [ -47.542331, -22.388052 ], [ -47.542176, -22.387626 ], [ -47.542176, -22.386757 ], [ -47.542136, -22.386816 ], [ -47.54192, -22.387133 ], [ -47.540092, -22.388794 ], [ -47.537223, -22.390612 ] ] ] } },
{ "type": "Feature", "properties": { "IDENTIFICA": "00107", "SETOR": "07", "APELIDO": "07", "MACROSETOR": "RIO CLARO - DOMICILIAR", "COR": 0.0, "FREQUENCIA": "SEG, QUA E SEX - NOTURNO" }, "geometry": { "type": "Polygon", "coordinates": [ [ [ -47.560797, -22.394901 ], [ -47.562022, -22.395285 ], [ -47.563046, -22.395607 ], [ -47.564211, -22.395955 ], [ -47.564272, -22.395976 ], [ -47.564425, -22.39602 ], [ -47.565646, -22.39642 ], [ -47.566519, -22.396656 ], [ -47.566685, -22.396712 ], [ -47.566948, -22.396788 ], [ -47.567798, -22.397036 ], [ -47.569176, -22.397465 ], [ -47.569618, -22.397609 ], [ -47.570988, -22.398056 ], [ -47.571828, -22.398322 ], [ -47.572884, -22.398655 ], [ -47.574602, -22.394596 ], [ -47.573698, -22.394796 ], [ -47.574605, -22.392573 ], [ -47.575515, -22.390575 ], [ -47.576423, -22.388492 ], [ -47.573131, -22.387288 ], [ -47.572303, -22.387062 ], [ -47.571691, -22.386934 ], [ -47.568666, -22.386937 ], [ -47.567687, -22.386938 ], [ -47.567064, -22.38694 ], [ -47.566365, -22.386942 ], [ -47.565323, -22.386909 ], [ -47.564832, -22.386894 ], [ -47.563783, -22.386861 ], [ -47.563292, -22.386843 ], [ -47.562966, -22.386724 ], [ -47.562343, -22.386524 ], [ -47.561803, -22.38635 ], [ -47.561837, -22.386132 ], [ -47.562006, -22.384961 ], [ -47.561024, -22.385163 ], [ -47.559478, -22.38548 ], [ -47.557942, -22.385793 ], [ -47.558275, -22.387258 ], [ -47.558455, -22.38804 ], [ -47.558679, -22.389014 ], [ -47.558974, -22.390256 ], [ -47.559175, -22.391101 ], [ -47.559961, -22.394483 ], [ -47.560069, -22.394783 ], [ -47.560147, -22.394843 ], [ -47.560797, -22.394901 ] ] ] } },
{ "type": "Feature", "properties": { "IDENTIFICA": "00108", "SETOR": "08", "APELIDO": "08", "MACROSETOR": "RIO CLARO - DOMICILIAR", "COR": 0.0, "FREQUENCIA": "TER, QUI E SAB - DIURNO" }, "geometry": { "type": "Polygon", "coordinates": [ [ [ -47.574605, -22.392573 ], [ -47.573698, -22.394796 ], [ -47.574602, -22.394596 ], [ -47.572884, -22.398655 ], [ -47.573775, -22.398946 ], [ -47.574593, -22.399233 ], [ -47.574516, -22.399373 ], [ -47.574814, -22.399625 ], [ -47.574949, -22.400099 ], [ -47.575329, -22.400055 ], [ -47.575496, -22.400059 ], [ -47.575794, -22.399224 ], [ -47.577319, -22.39556 ], [ -47.57897, -22.396183 ], [ -47.58039, -22.396705 ], [ -47.58232, -22.397387 ], [ -47.584418, -22.398121 ], [ -47.586369, -22.393578 ], [ -47.585847, -22.393422 ], [ -47.586636, -22.391564 ], [ -47.585878, -22.391313 ], [ -47.586267, -22.390409 ], [ -47.58591, -22.390266 ], [ -47.584358, -22.389758 ], [ -47.582183, -22.389017 ], [ -47.582707, -22.388286 ], [ -47.582867, -22.387969 ], [ -47.582762, -22.387977 ], [ -47.582982, -22.387618 ], [ -47.583105, -22.387385 ], [ -47.583398, -22.386947 ], [ -47.583602, -22.386643 ], [ -47.584251, -22.385783 ], [ -47.584576, -22.385351 ], [ -47.584772, -22.385055 ], [ -47.584813, -22.384852 ], [ -47.58524, -22.383974 ], [ -47.585163, -22.383861 ], [ -47.58504, -22.383738 ], [ -47.584706, -22.383743 ], [ -47.583318, -22.383795 ], [ -47.58096, -22.384181 ], [ -47.58026, -22.384295 ], [ -47.579228, -22.384671 ], [ -47.57842, -22.385398 ], [ -47.577818, -22.385864 ], [ -47.577315, -22.386394 ], [ -47.576947, -22.387238 ], [ -47.576423, -22.388492 ], [ -47.575515, -22.390575 ], [ -47.574605, -22.392573 ] ] ] } },
{ "type": "Feature", "properties": { "IDENTIFICA": "00109", "SETOR": "09", "APELIDO": "09", "MACROSETOR": "RIO CLARO - DOMICILIAR", "COR": 0.0, "FREQUENCIA": "SEG, QUA E SEX - DIURNO" }, "geometry": { "type": "Polygon", "coordinates": [ [ [ -47.586369, -22.393578 ], [ -47.584418, -22.398121 ], [ -47.582501, -22.397453 ], [ -47.58039, -22.396705 ], [ -47.579919, -22.398062 ], [ -47.579089, -22.400506 ], [ -47.579455, -22.400642 ], [ -47.579866, -22.400741 ], [ -47.581028, -22.400801 ], [ -47.582197, -22.400887 ], [ -47.58244, -22.400871 ], [ -47.582961, -22.400801 ], [ -47.583398, -22.400697 ], [ -47.58341, -22.400694 ], [ -47.584326, -22.401545 ], [ -47.584319, -22.404115 ], [ -47.58419, -22.405917 ], [ -47.584511, -22.405902 ], [ -47.585888, -22.405792 ], [ -47.588594, -22.405578 ], [ -47.58861, -22.405577 ], [ -47.596946, -22.395989 ], [ -47.595086, -22.395154 ], [ -47.595293, -22.393979 ], [ -47.596814, -22.392574 ], [ -47.596077, -22.389694 ], [ -47.59481, -22.388427 ], [ -47.594188, -22.387966 ], [ -47.593612, -22.386192 ], [ -47.59276, -22.384892 ], [ -47.590926, -22.384058 ], [ -47.590378, -22.385444 ], [ -47.590038, -22.38677 ], [ -47.58998, -22.387326 ], [ -47.589905, -22.387707 ], [ -47.589639, -22.387917 ], [ -47.589479, -22.387916 ], [ -47.588652, -22.387909 ], [ -47.588096, -22.387927 ], [ -47.587347, -22.387915 ], [ -47.586237, -22.387917 ], [ -47.585637, -22.387925 ], [ -47.584492, -22.387935 ], [ -47.583384, -22.387933 ], [ -47.582867, -22.387969 ], [ -47.582707, -22.388286 ], [ -47.582183, -22.389017 ], [ -47.584358, -22.389758 ], [ -47.58591, -22.390266 ], [ -47.586267, -22.390409 ], [ -47.585878, -22.391313 ], [ -47.586636, -22.391564 ], [ -47.585847, -22.393422 ], [ -47.586369, -22.393578 ] ] ] } },
{ "type": "Feature", "properties": { "IDENTIFICA": "00110", "SETOR": "10", "APELIDO": "10", "MACROSETOR": "RIO CLARO - DOMICILIAR", "COR": 0.0, "FREQUENCIA": "TER, QUI E SAB - DIURNO" }, "geometry": { "type": "Polygon", "coordinates": [ [ [ -47.583075, -22.419435 ], [ -47.58277, -22.419358 ], [ -47.582579, -22.419297 ], [ -47.582076, -22.419207 ], [ -47.581299, -22.41913 ], [ -47.580785, -22.419079 ], [ -47.580092, -22.41901 ], [ -47.57933, -22.419 ], [ -47.578554, -22.419061 ], [ -47.578447, -22.419872 ], [ -47.578031, -22.421371 ], [ -47.577963, -22.421922 ], [ -47.578204, -22.422743 ], [ -47.578841, -22.423305 ], [ -47.579093, -22.424209 ], [ -47.579793, -22.425477 ], [ -47.580652, -22.427981 ], [ -47.577452, -22.431751 ], [ -47.575731, -22.434666 ], [ -47.576916, -22.434911 ], [ -47.580447, -22.435576 ], [ -47.582332, -22.435889 ], [ -47.58236, -22.435559 ], [ -47.58242, -22.434852 ], [ -47.582489, -22.434066 ], [ -47.582508, -22.433846 ], [ -47.583075, -22.433295 ], [ -47.583495, -22.432775 ], [ -47.58386, -22.432237 ], [ -47.584729, -22.430935 ], [ -47.585417, -22.429905 ], [ -47.586426, -22.430503 ], [ -47.589005, -22.432033 ], [ -47.59058, -22.431143 ], [ -47.591931, -22.432414 ], [ -47.592759, -22.433193 ], [ -47.595971, -22.43391 ], [ -47.597492, -22.434246 ], [ -47.601432, -22.43512 ], [ -47.603388, -22.430458 ], [ -47.604279, -22.428631 ], [ -47.601929, -22.428492 ], [ -47.599256, -22.427939 ], [ -47.597459, -22.42817 ], [ -47.594651, -22.428399 ], [ -47.592252, -22.427703 ], [ -47.589642, -22.427069 ], [ -47.589515, -22.426343 ], [ -47.588905, -22.425347 ], [ -47.583574, -22.423044 ], [ -47.584779, -22.421192 ], [ -47.585502, -22.41994 ], [ -47.585322, -22.419934 ], [ -47.585087, -22.419869 ], [ -47.584903, -22.419832 ], [ -47.584686, -22.419808 ], [ -47.58448, -22.419759 ], [ -47.584362, -22.419722 ], [ -47.583973, -22.419638 ], [ -47.583565, -22.419556 ], [ -47.583301, -22.419484 ], [ -47.583218, -22.419462 ], [ -47.583075, -22.419435 ] ] ] } },
{ "type": "Feature", "properties": { "IDENTIFICA": "00111", "SETOR": "11", "APELIDO": "11", "MACROSETOR": "RIO CLARO - DOMICILIAR", "COR": 0.0, "FREQUENCIA": "TER, QUI E SAB - NOTURNO" }, "geometry": { "type": "Polygon", "coordinates": [ [ [ -47.568497, -22.433174 ], [ -47.569005, -22.433795 ], [ -47.569773, -22.434733 ], [ -47.569992, -22.43501 ], [ -47.570091, -22.435124 ], [ -47.570964, -22.433434 ], [ -47.575731, -22.434666 ], [ -47.577452, -22.431751 ], [ -47.580652, -22.427981 ], [ -47.579793, -22.425477 ], [ -47.579093, -22.424209 ], [ -47.578841, -22.423305 ], [ -47.578204, -22.422743 ], [ -47.577963, -22.421922 ], [ -47.578031, -22.421371 ], [ -47.578447, -22.419872 ], [ -47.577634, -22.419878 ], [ -47.576355, -22.419289 ], [ -47.574786, -22.418727 ], [ -47.572102, -22.417738 ], [ -47.569696, -22.416889 ], [ -47.568795, -22.416575 ], [ -47.568459, -22.417355 ], [ -47.567701, -22.419119 ], [ -47.567043, -22.420775 ], [ -47.564732, -22.426436 ], [ -47.564152, -22.427859 ], [ -47.56459, -22.428407 ], [ -47.565662, -22.429748 ], [ -47.566479, -22.430743 ], [ -47.56753, -22.432023 ], [ -47.568256, -22.432903 ], [ -47.568497, -22.433174 ] ] ] } },
{ "type": "Feature", "properties": { "IDENTIFICA": "00112", "SETOR": "12", "APELIDO": "12", "MACROSETOR": "RIO CLARO - DOMICILIAR", "COR": 0.0, "FREQUENCIA": "TER, QUI E SAB - DIURNO" }, "geometry": { "type": "Polygon", "coordinates": [ [ [ -47.564122, -22.375857 ], [ -47.563787, -22.375796 ], [ -47.563539, -22.375768 ], [ -47.563218, -22.376775 ], [ -47.562634, -22.378597 ], [ -47.562292, -22.381535 ], [ -47.562457, -22.381583 ], [ -47.562126, -22.383996 ], [ -47.562006, -22.384959 ], [ -47.561837, -22.38613 ], [ -47.561803, -22.38635 ], [ -47.562343, -22.386524 ], [ -47.562966, -22.386724 ], [ -47.563292, -22.386843 ], [ -47.563783, -22.386861 ], [ -47.564832, -22.386894 ], [ -47.565323, -22.386909 ], [ -47.566365, -22.386942 ], [ -47.567064, -22.38694 ], [ -47.567687, -22.386938 ], [ -47.568666, -22.386937 ], [ -47.571691, -22.386934 ], [ -47.572303, -22.387062 ], [ -47.572599, -22.386419 ], [ -47.573078, -22.385593 ], [ -47.57329, -22.384961 ], [ -47.574081, -22.383363 ], [ -47.574418, -22.382678 ], [ -47.574898, -22.381659 ], [ -47.575571, -22.380239 ], [ -47.5758, -22.379772 ], [ -47.576127, -22.379105 ], [ -47.576254, -22.378862 ], [ -47.576407, -22.378571 ], [ -47.576587, -22.378277 ], [ -47.57678, -22.377995 ], [ -47.57758, -22.377455 ], [ -47.576701, -22.376628 ], [ -47.576238, -22.376554 ], [ -47.575914, -22.376417 ], [ -47.575232, -22.376128 ], [ -47.574731, -22.375916 ], [ -47.574329, -22.375755 ], [ -47.574091, -22.375529 ], [ -47.5737, -22.375159 ], [ -47.573281, -22.374761 ], [ -47.573174, -22.374657 ], [ -47.573083, -22.374603 ], [ -47.572938, -22.374518 ], [ -47.572728, -22.374396 ], [ -47.572524, -22.374277 ], [ -47.572425, -22.374219 ], [ -47.572318, -22.374159 ], [ -47.5722, -22.374091 ], [ -47.572102, -22.374038 ], [ -47.571924, -22.373943 ], [ -47.57183, -22.373899 ], [ -47.571726, -22.373826 ], [ -47.571587, -22.373754 ], [ -47.57147, -22.37367 ], [ -47.57138, -22.373839 ], [ -47.570331, -22.374141 ], [ -47.568381, -22.374628 ], [ -47.565764, -22.375378 ], [ -47.564667, -22.375675 ], [ -47.564259, -22.375816 ], [ -47.564122, -22.375857 ] ] ] } },
{ "type": "Feature", "properties": { "IDENTIFICA": "00113", "SETOR": "13", "APELIDO": "13", "MACROSETOR": "RIO CLARO - DOMICILIAR", "COR": 0.0, "FREQUENCIA": "SEG, QUA E SEX - DIURNO" }, "geometry": { "type": "Polygon", "coordinates": [ [ [ -47.546876, -22.380302 ], [ -47.547345, -22.380645 ], [ -47.547798, -22.380977 ], [ -47.548361, -22.381389 ], [ -47.548591, -22.38162 ], [ -47.549001, -22.382027 ], [ -47.549185, -22.38221 ], [ -47.549346, -22.382371 ], [ -47.549855, -22.382878 ], [ -47.549912, -22.382938 ], [ -47.550068, -22.383089 ], [ -47.550325, -22.383344 ], [ -47.550581, -22.383597 ], [ -47.550485, -22.383634 ], [ -47.551091, -22.38422 ], [ -47.551708, -22.38484 ], [ -47.55286, -22.386227 ], [ -47.553308, -22.386766 ], [ -47.557408, -22.385896 ], [ -47.557942, -22.385793 ], [ -47.561024, -22.385163 ], [ -47.562006, -22.384961 ], [ -47.56213, -22.383998 ], [ -47.562457, -22.381583 ], [ -47.562296, -22.381537 ], [ -47.562638, -22.378599 ], [ -47.563539, -22.37577 ], [ -47.563787, -22.375798 ], [ -47.564122, -22.375859 ], [ -47.564667, -22.375677 ], [ -47.565764, -22.37538 ], [ -47.568381, -22.37463 ], [ -47.570331, -22.374143 ], [ -47.57138, -22.373839 ], [ -47.57147, -22.373672 ], [ -47.572106, -22.372532 ], [ -47.572587, -22.371641 ], [ -47.573108, -22.370678 ], [ -47.573356, -22.37022 ], [ -47.574329, -22.36842 ], [ -47.575612, -22.365653 ], [ -47.576329, -22.36221 ], [ -47.581498, -22.354681 ], [ -47.578043, -22.350709 ], [ -47.577272, -22.350028 ], [ -47.57577, -22.349025 ], [ -47.573438, -22.347872 ], [ -47.57213, -22.347645 ], [ -47.570815, -22.347493 ], [ -47.568914, -22.347719 ], [ -47.566627, -22.348344 ], [ -47.560173, -22.352199 ], [ -47.560832, -22.354637 ], [ -47.563081, -22.361166 ], [ -47.562338, -22.367569 ], [ -47.562239, -22.368426 ], [ -47.561232, -22.369024 ], [ -47.560223, -22.369989 ], [ -47.559493, -22.370674 ], [ -47.559543, -22.372809 ], [ -47.559181, -22.373221 ], [ -47.557971, -22.373851 ], [ -47.554946, -22.374064 ], [ -47.555495, -22.377881 ], [ -47.555094, -22.377968 ], [ -47.554669, -22.37809 ], [ -47.554485, -22.378138 ], [ -47.553798, -22.378323 ], [ -47.553744, -22.378338 ], [ -47.553584, -22.378383 ], [ -47.552883, -22.37858 ], [ -47.551956, -22.37884 ], [ -47.55167, -22.378922 ], [ -47.550892, -22.379141 ], [ -47.549728, -22.379468 ], [ -47.548826, -22.379723 ], [ -47.548666, -22.37977 ], [ -47.548065, -22.37994 ], [ -47.54788, -22.379993 ], [ -47.547436, -22.380119 ], [ -47.547052, -22.380251 ], [ -47.546876, -22.380302 ] ] ] } },
{ "type": "Feature", "properties": { "IDENTIFICA": "00114", "SETOR": "14", "APELIDO": "14", "MACROSETOR": "RIO CLARO - DOMICILIAR", "COR": 0.0, "FREQUENCIA": "SEG, QUA E SEX - DIURNO" }, "geometry": { "type": "Polygon", "coordinates": [ [ [ -47.53584, -22.383868 ], [ -47.538168, -22.387074 ], [ -47.538186, -22.387087 ], [ -47.540092, -22.388794 ], [ -47.54192, -22.387133 ], [ -47.542136, -22.386816 ], [ -47.542224, -22.385746 ], [ -47.542257, -22.385321 ], [ -47.542274, -22.384869 ], [ -47.542355, -22.383678 ], [ -47.542368, -22.383498 ], [ -47.542363, -22.382957 ], [ -47.542435, -22.381742 ], [ -47.542527, -22.380275 ], [ -47.542598, -22.379635 ], [ -47.542637, -22.379291 ], [ -47.542662, -22.37893 ], [ -47.542757, -22.378599 ], [ -47.543154, -22.378313 ], [ -47.543269, -22.378214 ], [ -47.543389, -22.378153 ], [ -47.543459, -22.378093 ], [ -47.543537, -22.378019 ], [ -47.543663, -22.377899 ], [ -47.544702, -22.37752 ], [ -47.545283, -22.377307 ], [ -47.545858, -22.377092 ], [ -47.545385, -22.375929 ], [ -47.544936, -22.373978 ], [ -47.544662, -22.372804 ], [ -47.544348, -22.371399 ], [ -47.544142, -22.370468 ], [ -47.543842, -22.370127 ], [ -47.543657, -22.369678 ], [ -47.54355, -22.369498 ], [ -47.544288, -22.368186 ], [ -47.543729, -22.367607 ], [ -47.54302, -22.365252 ], [ -47.54052, -22.365086 ], [ -47.536769, -22.363919 ], [ -47.536727, -22.362939 ], [ -47.536516, -22.358741 ], [ -47.530601, -22.360251 ], [ -47.527267, -22.361168 ], [ -47.524031, -22.36174 ], [ -47.520599, -22.362752 ], [ -47.518115, -22.363358 ], [ -47.517965, -22.365124 ], [ -47.517388, -22.371699 ], [ -47.523183, -22.375921 ], [ -47.530684, -22.379005 ], [ -47.532298, -22.382717 ], [ -47.5341, -22.383176 ], [ -47.535825, -22.383851 ], [ -47.53584, -22.383868 ] ] ] } },
{ "type": "Feature", "properties": { "IDENTIFICA": "00115", "SETOR": "15", "APELIDO": "15", "MACROSETOR": "RIO CLARO - DOMICILIAR", "COR": 0.0, "FREQUENCIA": "TER, QUI E SAB - DIURNO" }, "geometry": { "type": "Polygon", "coordinates": [ [ [ -47.601293, -22.436541 ], [ -47.601437, -22.435115 ], [ -47.597497, -22.434241 ], [ -47.595976, -22.433905 ], [ -47.594561, -22.433592 ], [ -47.593535, -22.433363 ], [ -47.592764, -22.433188 ], [ -47.591936, -22.432409 ], [ -47.590585, -22.431138 ], [ -47.58901, -22.432028 ], [ -47.586431, -22.430498 ], [ -47.585422, -22.4299 ], [ -47.584734, -22.43093 ], [ -47.583865, -22.432232 ], [ -47.583084, -22.433281 ], [ -47.582513, -22.433841 ], [ -47.582485, -22.434167 ], [ -47.582425, -22.434846 ], [ -47.582365, -22.435554 ], [ -47.582337, -22.435884 ], [ -47.580455, -22.435574 ], [ -47.576924, -22.434909 ], [ -47.575731, -22.434666 ], [ -47.570964, -22.433434 ], [ -47.570091, -22.435124 ], [ -47.57017, -22.435213 ], [ -47.570544, -22.435692 ], [ -47.57084, -22.436187 ], [ -47.570999, -22.436575 ], [ -47.571111, -22.437791 ], [ -47.571292, -22.438979 ], [ -47.571609, -22.440236 ], [ -47.571951, -22.441761 ], [ -47.572334, -22.443441 ], [ -47.572857, -22.44577 ], [ -47.573451, -22.448356 ], [ -47.581221, -22.447514 ], [ -47.581456, -22.448457 ], [ -47.581628, -22.448554 ], [ -47.583002, -22.449299 ], [ -47.585044, -22.448418 ], [ -47.585748, -22.448114 ], [ -47.585702, -22.445898 ], [ -47.588329, -22.444874 ], [ -47.590092, -22.439777 ], [ -47.590276, -22.436966 ], [ -47.601238, -22.436536 ], [ -47.601293, -22.436541 ] ] ] } },
{ "type": "Feature", "properties": { "IDENTIFICA": "00116", "SETOR": "16", "APELIDO": "16", "MACROSETOR": "RIO CLARO - DOMICILIAR", "COR": 0.0, "FREQUENCIA": "SEG, QUA E SEX - DIURNO" }, "geometry": { "type": "Polygon", "coordinates": [ [ [ -47.573131, -22.387288 ], [ -47.576423, -22.388492 ], [ -47.576947, -22.387238 ], [ -47.577315, -22.386394 ], [ -47.577818, -22.385864 ], [ -47.57842, -22.385398 ], [ -47.579228, -22.384671 ], [ -47.58026, -22.384295 ], [ -47.58096, -22.384181 ], [ -47.58106, -22.383732 ], [ -47.582633, -22.383397 ], [ -47.583027, -22.383111 ], [ -47.583049, -22.383056 ], [ -47.583159, -22.382937 ], [ -47.583287, -22.382933 ], [ -47.583498, -22.382718 ], [ -47.583693, -22.382597 ], [ -47.583928, -22.382434 ], [ -47.584239, -22.382213 ], [ -47.584586, -22.381948 ], [ -47.585274, -22.381399 ], [ -47.585918, -22.38127 ], [ -47.586219, -22.380893 ], [ -47.586594, -22.380199 ], [ -47.587242, -22.379583 ], [ -47.587731, -22.379217 ], [ -47.587776, -22.379365 ], [ -47.588128, -22.37967 ], [ -47.588286, -22.379807 ], [ -47.588387, -22.379895 ], [ -47.5885, -22.379993 ], [ -47.588546, -22.379916 ], [ -47.588619, -22.379794 ], [ -47.589945, -22.377571 ], [ -47.590758, -22.376451 ], [ -47.592166, -22.374899 ], [ -47.593824, -22.37306 ], [ -47.594286, -22.372369 ], [ -47.594465, -22.371453 ], [ -47.595317, -22.370531 ], [ -47.583074, -22.356494 ], [ -47.581498, -22.354681 ], [ -47.576329, -22.36221 ], [ -47.575612, -22.365653 ], [ -47.574329, -22.36842 ], [ -47.573297, -22.370328 ], [ -47.572587, -22.371641 ], [ -47.572106, -22.372532 ], [ -47.57147, -22.37367 ], [ -47.571587, -22.373754 ], [ -47.571726, -22.373826 ], [ -47.57183, -22.373899 ], [ -47.571924, -22.373943 ], [ -47.572102, -22.374038 ], [ -47.5722, -22.374091 ], [ -47.572318, -22.374159 ], [ -47.572425, -22.374219 ], [ -47.572524, -22.374277 ], [ -47.572728, -22.374396 ], [ -47.572938, -22.374518 ], [ -47.573083, -22.374603 ], [ -47.573174, -22.374657 ], [ -47.573281, -22.374761 ], [ -47.5737, -22.375159 ], [ -47.574091, -22.375529 ], [ -47.574329, -22.375755 ], [ -47.574731, -22.375916 ], [ -47.575232, -22.376128 ], [ -47.575914, -22.376417 ], [ -47.576238, -22.376554 ], [ -47.576701, -22.376628 ], [ -47.57758, -22.377455 ], [ -47.57678, -22.377995 ], [ -47.576587, -22.378277 ], [ -47.576407, -22.378571 ], [ -47.576254, -22.378862 ], [ -47.576127, -22.379105 ], [ -47.5758, -22.379772 ], [ -47.575571, -22.380239 ], [ -47.575232, -22.380955 ], [ -47.574418, -22.38268 ], [ -47.574081, -22.383363 ], [ -47.57329, -22.384963 ], [ -47.573078, -22.385595 ], [ -47.572599, -22.386421 ], [ -47.572303, -22.387062 ], [ -47.573131, -22.387288 ] ] ] } },
{ "type": "Feature", "properties": { "IDENTIFICA": "00117", "SETOR": "17", "APELIDO": "17", "MACROSETOR": "RIO CLARO - DOMICILIAR", "COR": 0.0, "FREQUENCIA": "TER, QUI E SAB - DIURNO" }, "geometry": { "type": "Polygon", "coordinates": [ [ [ -47.568279, -22.444198 ], [ -47.570272, -22.444825 ], [ -47.57158, -22.450207 ], [ -47.573422, -22.457566 ], [ -47.574311, -22.45936 ], [ -47.574433, -22.459712 ], [ -47.574739, -22.460424 ], [ -47.575056, -22.461081 ], [ -47.575717, -22.46244 ], [ -47.576692, -22.464476 ], [ -47.57701, -22.465152 ], [ -47.577502, -22.466166 ], [ -47.57772, -22.466682 ], [ -47.57792, -22.467217 ], [ -47.578028, -22.467616 ], [ -47.578115, -22.468005 ], [ -47.578244, -22.468818 ], [ -47.578292, -22.469604 ], [ -47.578272, -22.470366 ], [ -47.577882, -22.475387 ], [ -47.577427, -22.481248 ], [ -47.577424, -22.481994 ], [ -47.577478, -22.482872 ], [ -47.577581, -22.483764 ], [ -47.578605, -22.48936 ], [ -47.580196, -22.498413 ], [ -47.580315, -22.499302 ], [ -47.580425, -22.499999 ], [ -47.580518, -22.500516 ], [ -47.581622, -22.508822 ], [ -47.582081, -22.510301 ], [ -47.589059, -22.509975 ], [ -47.588946, -22.509839 ], [ -47.588672, -22.509595 ], [ -47.588503, -22.509363 ], [ -47.588163, -22.50886 ], [ -47.587798, -22.508454 ], [ -47.587658, -22.508253 ], [ -47.587546, -22.507852 ], [ -47.587425, -22.507292 ], [ -47.58731, -22.506529 ], [ -47.587331, -22.50583 ], [ -47.587379, -22.505533 ], [ -47.58742, -22.50537 ], [ -47.587492, -22.505212 ], [ -47.587589, -22.505062 ], [ -47.588074, -22.504296 ], [ -47.588361, -22.503857 ], [ -47.58858, -22.503501 ], [ -47.588738, -22.503222 ], [ -47.588852, -22.50295 ], [ -47.58893, -22.502594 ], [ -47.588932, -22.502192 ], [ -47.588951, -22.501746 ], [ -47.588991, -22.50106 ], [ -47.589042, -22.500564 ], [ -47.589048, -22.500235 ], [ -47.589037, -22.499771 ], [ -47.589032, -22.499434 ], [ -47.58901, -22.499199 ], [ -47.58897, -22.498686 ], [ -47.588946, -22.498099 ], [ -47.588948, -22.497779 ], [ -47.588962, -22.497157 ], [ -47.588947, -22.496492 ], [ -47.588916, -22.496141 ], [ -47.588871, -22.495687 ], [ -47.58883, -22.495306 ], [ -47.588761, -22.495003 ], [ -47.588669, -22.494716 ], [ -47.588546, -22.494389 ], [ -47.588396, -22.494079 ], [ -47.588246, -22.493819 ], [ -47.58754, -22.49285 ], [ -47.587465, -22.492716 ], [ -47.587422, -22.49255 ], [ -47.58739, -22.492275 ], [ -47.58732, -22.49169 ], [ -47.587334, -22.491544 ], [ -47.587456, -22.490496 ], [ -47.5875, -22.490002 ], [ -47.587497, -22.489549 ], [ -47.587497, -22.489048 ], [ -47.587516, -22.488778 ], [ -47.587567, -22.488456 ], [ -47.587859, -22.487056 ], [ -47.588087, -22.48602 ], [ -47.588349, -22.484591 ], [ -47.58846, -22.483809 ], [ -47.588484, -22.483478 ], [ -47.588519, -22.483169 ], [ -47.58857, -22.482864 ], [ -47.588687, -22.482195 ], [ -47.588728, -22.481993 ], [ -47.588834, -22.481718 ], [ -47.589495, -22.480061 ], [ -47.589525, -22.479897 ], [ -47.589507, -22.479763 ], [ -47.589452, -22.479518 ], [ -47.589349, -22.479243 ], [ -47.589173, -22.478919 ], [ -47.588835, -22.478356 ], [ -47.58854, -22.47784 ], [ -47.588071, -22.477036 ], [ -47.587903, -22.476809 ], [ -47.587809, -22.476695 ], [ -47.587702, -22.476551 ], [ -47.58765, -22.476416 ], [ -47.587599, -22.476224 ], [ -47.587494, -22.475883 ], [ -47.587053, -22.474362 ], [ -47.586796, -22.47356 ], [ -47.586659, -22.473047 ], [ -47.586444, -22.472355 ], [ -47.586246, -22.471655 ], [ -47.585946, -22.470703 ], [ -47.5859, -22.470513 ], [ -47.585867, -22.470329 ], [ -47.585826, -22.470207 ], [ -47.58581, -22.470158 ], [ -47.585736, -22.470008 ], [ -47.585507, -22.469657 ], [ -47.58488, -22.467383 ], [ -47.593911, -22.456877 ], [ -47.593957, -22.455679 ], [ -47.592437, -22.453743 ], [ -47.59087, -22.448859 ], [ -47.590225, -22.445173 ], [ -47.588356, -22.444861 ], [ -47.588329, -22.444874 ], [ -47.585702, -22.445898 ], [ -47.585748, -22.448114 ], [ -47.585044, -22.448418 ], [ -47.583002, -22.449299 ], [ -47.581456, -22.448457 ], [ -47.581221, -22.447514 ], [ -47.573451, -22.448356 ], [ -47.572857, -22.44577 ], [ -47.572334, -22.443441 ], [ -47.571951, -22.441761 ], [ -47.571609, -22.440236 ], [ -47.571292, -22.438979 ], [ -47.571111, -22.437791 ], [ -47.570999, -22.436575 ], [ -47.57084, -22.436187 ], [ -47.570544, -22.435692 ], [ -47.570166, -22.435209 ], [ -47.569992, -22.43501 ], [ -47.569447, -22.436014 ], [ -47.568483, -22.437792 ], [ -47.566368, -22.441012 ], [ -47.564954, -22.442906 ], [ -47.568279, -22.444198 ] ] ] } },
{ "type": "Feature", "properties": { "IDENTIFICA": "00118", "SETOR": "18", "APELIDO": "18", "MACROSETOR": "RIO CLARO - DOMICILIAR", "COR": 0.0, "FREQUENCIA": "SEG, QUA E SEX - DIURNO" }, "geometry": { "type": "Polygon", "coordinates": [ [ [ -47.58473, -22.256244 ], [ -47.578431, -22.270373 ], [ -47.567632, -22.269648 ], [ -47.567383, -22.269165 ], [ -47.567026, -22.268703 ], [ -47.566551, -22.268329 ], [ -47.565877, -22.268169 ], [ -47.565057, -22.268393 ], [ -47.562866, -22.268244 ], [ -47.558583, -22.268866 ], [ -47.554913, -22.270648 ], [ -47.544549, -22.268988 ], [ -47.533257, -22.270024 ], [ -47.535831, -22.290289 ], [ -47.545333, -22.293956 ], [ -47.5435, -22.301458 ], [ -47.542166, -22.306626 ], [ -47.541352, -22.310199 ], [ -47.541198, -22.311661 ], [ -47.541166, -22.313794 ], [ -47.54429, -22.356764 ], [ -47.550806, -22.355094 ], [ -47.555682, -22.353806 ], [ -47.557732, -22.353206 ], [ -47.560154, -22.352207 ], [ -47.560173, -22.352199 ], [ -47.564829, -22.349459 ], [ -47.566627, -22.348344 ], [ -47.568914, -22.347719 ], [ -47.570815, -22.347493 ], [ -47.57213, -22.347645 ], [ -47.573438, -22.347872 ], [ -47.57577, -22.349025 ], [ -47.577272, -22.350028 ], [ -47.578043, -22.350709 ], [ -47.581498, -22.354681 ], [ -47.583074, -22.356494 ], [ -47.595317, -22.370531 ], [ -47.594465, -22.371453 ], [ -47.594286, -22.372369 ], [ -47.593824, -22.37306 ], [ -47.592166, -22.374899 ], [ -47.590758, -22.376451 ], [ -47.589945, -22.377571 ], [ -47.588619, -22.379794 ], [ -47.5885, -22.379993 ], [ -47.588387, -22.379895 ], [ -47.588286, -22.379807 ], [ -47.588128, -22.37967 ], [ -47.587776, -22.379365 ], [ -47.587731, -22.379217 ], [ -47.587216, -22.379604 ], [ -47.586594, -22.380199 ], [ -47.586219, -22.380893 ], [ -47.585918, -22.38127 ], [ -47.585274, -22.381399 ], [ -47.584239, -22.382213 ], [ -47.583783, -22.382535 ], [ -47.583498, -22.382718 ], [ -47.583287, -22.382933 ], [ -47.583159, -22.382937 ], [ -47.583049, -22.383056 ], [ -47.583027, -22.383111 ], [ -47.583161, -22.383484 ], [ -47.583209, -22.383807 ], [ -47.583328, -22.383793 ], [ -47.583488, -22.38379 ], [ -47.583662, -22.383783 ], [ -47.584386, -22.383756 ], [ -47.584706, -22.383743 ], [ -47.58504, -22.383738 ], [ -47.585163, -22.383861 ], [ -47.58524, -22.383974 ], [ -47.585003, -22.384454 ], [ -47.584813, -22.384852 ], [ -47.584772, -22.385055 ], [ -47.584576, -22.385351 ], [ -47.584356, -22.385643 ], [ -47.584075, -22.386017 ], [ -47.583895, -22.386255 ], [ -47.583723, -22.386483 ], [ -47.583586, -22.386667 ], [ -47.583398, -22.386947 ], [ -47.583221, -22.387211 ], [ -47.583105, -22.387385 ], [ -47.582982, -22.387618 ], [ -47.582762, -22.387977 ], [ -47.582867, -22.387969 ], [ -47.583384, -22.387933 ], [ -47.584492, -22.387935 ], [ -47.586237, -22.387917 ], [ -47.587347, -22.387915 ], [ -47.588105, -22.387924 ], [ -47.588643, -22.38791 ], [ -47.589479, -22.387916 ], [ -47.589639, -22.387917 ], [ -47.589747, -22.387832 ], [ -47.589905, -22.387707 ], [ -47.58998, -22.387326 ], [ -47.590038, -22.38677 ], [ -47.590378, -22.385444 ], [ -47.590926, -22.384058 ], [ -47.59276, -22.384892 ], [ -47.595844, -22.383892 ], [ -47.597427, -22.380808 ], [ -47.604346, -22.361887 ], [ -47.604679, -22.338632 ], [ -47.614181, -22.319462 ], [ -47.617525, -22.31356 ], [ -47.620682, -22.307792 ], [ -47.616348, -22.299291 ], [ -47.601678, -22.289122 ], [ -47.594917, -22.279024 ], [ -47.594582, -22.267066 ], [ -47.591815, -22.258899 ], [ -47.59297, -22.251704 ], [ -47.587218, -22.250428 ], [ -47.58473, -22.256244 ] ] ] } },
{ "type": "Feature", "properties": { "IDENTIFICA": "00119", "SETOR": "19", "APELIDO": "19", "MACROSETOR": "RIO CLARO - DOMICILIAR", "COR": 0.0, "FREQUENCIA": "TER, QUI E SAB - DIURNO" }, "geometry": { "type": "Polygon", "coordinates": [ [ [ -47.609321, -22.384145 ], [ -47.605085, -22.388035 ], [ -47.599357, -22.393353 ], [ -47.596946, -22.395989 ], [ -47.58861, -22.405577 ], [ -47.583063, -22.412086 ], [ -47.582473, -22.412765 ], [ -47.57914, -22.41709 ], [ -47.578158, -22.41887 ], [ -47.578041, -22.419101 ], [ -47.578554, -22.419061 ], [ -47.57933, -22.419 ], [ -47.580092, -22.41901 ], [ -47.580785, -22.419079 ], [ -47.581299, -22.41913 ], [ -47.582076, -22.419207 ], [ -47.582579, -22.419297 ], [ -47.582773, -22.419361 ], [ -47.583078, -22.419438 ], [ -47.583218, -22.419462 ], [ -47.583367, -22.419505 ], [ -47.583565, -22.419556 ], [ -47.583973, -22.419638 ], [ -47.584362, -22.419722 ], [ -47.58448, -22.419759 ], [ -47.584686, -22.419808 ], [ -47.584903, -22.419832 ], [ -47.585087, -22.419869 ], [ -47.585339, -22.419938 ], [ -47.585502, -22.41994 ], [ -47.584779, -22.421192 ], [ -47.583574, -22.423044 ], [ -47.586182, -22.424175 ], [ -47.588905, -22.425347 ], [ -47.589516, -22.426351 ], [ -47.589639, -22.427075 ], [ -47.592252, -22.427703 ], [ -47.594651, -22.428399 ], [ -47.597459, -22.42817 ], [ -47.599256, -22.427939 ], [ -47.601929, -22.428492 ], [ -47.604279, -22.428631 ], [ -47.641864, -22.399089 ], [ -47.628677, -22.384625 ], [ -47.622964, -22.386469 ], [ -47.618172, -22.385731 ], [ -47.611481, -22.38221 ], [ -47.609321, -22.384145 ] ] ] } },
{ "type": "Feature", "properties": { "IDENTIFICA": "00120", "SETOR": "20", "APELIDO": "20", "MACROSETOR": "RIO CLARO - DOMICILIAR", "COR": 0.0, "FREQUENCIA": "SEG, QUA E SEX - DIURNO" }, "geometry": { "type": "Polygon", "coordinates": [ [ [ -47.542355, -22.383678 ], [ -47.542274, -22.384869 ], [ -47.542257, -22.385321 ], [ -47.542224, -22.385746 ], [ -47.542173, -22.386347 ], [ -47.542136, -22.386816 ], [ -47.542244, -22.386689 ], [ -47.542353, -22.386557 ], [ -47.542411, -22.386055 ], [ -47.543564, -22.38532 ], [ -47.544733, -22.384967 ], [ -47.545707, -22.384683 ], [ -47.546672, -22.384405 ], [ -47.547571, -22.384165 ], [ -47.547812, -22.384486 ], [ -47.547904, -22.384607 ], [ -47.547992, -22.384719 ], [ -47.548298, -22.385122 ], [ -47.549096, -22.384621 ], [ -47.549236, -22.384532 ], [ -47.549637, -22.384233 ], [ -47.54989, -22.384044 ], [ -47.549943, -22.384004 ], [ -47.550485, -22.383634 ], [ -47.550581, -22.383597 ], [ -47.550325, -22.383344 ], [ -47.550068, -22.383089 ], [ -47.549912, -22.382938 ], [ -47.549855, -22.382878 ], [ -47.549346, -22.382371 ], [ -47.549185, -22.38221 ], [ -47.549001, -22.382027 ], [ -47.548591, -22.38162 ], [ -47.548361, -22.381389 ], [ -47.547798, -22.380977 ], [ -47.547345, -22.380645 ], [ -47.546876, -22.380302 ], [ -47.546958, -22.380279 ], [ -47.547052, -22.380251 ], [ -47.547436, -22.380119 ], [ -47.54788, -22.379993 ], [ -47.548065, -22.37994 ], [ -47.548666, -22.37977 ], [ -47.548826, -22.379723 ], [ -47.549216, -22.379612 ], [ -47.549728, -22.379468 ], [ -47.550892, -22.379141 ], [ -47.55167, -22.378922 ], [ -47.551956, -22.37884 ], [ -47.552883, -22.37858 ], [ -47.553584, -22.378383 ], [ -47.553744, -22.378338 ], [ -47.553798, -22.378323 ], [ -47.554485, -22.378138 ], [ -47.554669, -22.37809 ], [ -47.555094, -22.377968 ], [ -47.555495, -22.377881 ], [ -47.554946, -22.374064 ], [ -47.557967, -22.373851 ], [ -47.559181, -22.373221 ], [ -47.559543, -22.372809 ], [ -47.559493, -22.370674 ], [ -47.560223, -22.369989 ], [ -47.561232, -22.369024 ], [ -47.562239, -22.368426 ], [ -47.562338, -22.367569 ], [ -47.563081, -22.361166 ], [ -47.560832, -22.354637 ], [ -47.560173, -22.352199 ], [ -47.557732, -22.353206 ], [ -47.555682, -22.353806 ], [ -47.550806, -22.355094 ], [ -47.546228, -22.356272 ], [ -47.54429, -22.356764 ], [ -47.545395, -22.362658 ], [ -47.546897, -22.367222 ], [ -47.543657, -22.369678 ], [ -47.543842, -22.370127 ], [ -47.544142, -22.370468 ], [ -47.544331, -22.371377 ], [ -47.544662, -22.372804 ], [ -47.544936, -22.373978 ], [ -47.545385, -22.375929 ], [ -47.545858, -22.377092 ], [ -47.543663, -22.377899 ], [ -47.543537, -22.378019 ], [ -47.543459, -22.378093 ], [ -47.543389, -22.378153 ], [ -47.543269, -22.378214 ], [ -47.543154, -22.378313 ], [ -47.542851, -22.378528 ], [ -47.542757, -22.378599 ], [ -47.542662, -22.37893 ], [ -47.542637, -22.379291 ], [ -47.542598, -22.379635 ], [ -47.542527, -22.380275 ], [ -47.542435, -22.381742 ], [ -47.542363, -22.382957 ], [ -47.542368, -22.383498 ], [ -47.542355, -22.383678 ] ] ] } },
{ "type": "Feature", "properties": { "IDENTIFICA": "00121", "SETOR": "21", "APELIDO": "21", "MACROSETOR": "RIO CLARO - DOMICILIAR", "COR": 0.0, "FREQUENCIA": "SEG, TER, QUA, QUI, SEX, SAB - NOTURNO" }, "geometry": { "type": "Polygon", "coordinates": [ [ [ -47.555295, -22.416933 ], [ -47.55666, -22.417373 ], [ -47.557116, -22.417524 ], [ -47.55812, -22.417861 ], [ -47.558766, -22.418072 ], [ -47.56042, -22.418602 ], [ -47.561323, -22.418897 ], [ -47.562475, -22.419275 ], [ -47.562818, -22.41938 ], [ -47.563121, -22.419484 ], [ -47.563507, -22.419612 ], [ -47.564083, -22.419803 ], [ -47.564499, -22.419939 ], [ -47.565212, -22.420182 ], [ -47.565904, -22.420414 ], [ -47.567035, -22.420795 ], [ -47.568459, -22.417355 ], [ -47.568795, -22.416575 ], [ -47.569139, -22.4158 ], [ -47.56996, -22.413647 ], [ -47.569863, -22.413497 ], [ -47.569772, -22.413397 ], [ -47.568496, -22.412105 ], [ -47.567598, -22.411225 ], [ -47.56673, -22.410776 ], [ -47.565905, -22.409688 ], [ -47.564932, -22.408554 ], [ -47.564869, -22.408257 ], [ -47.564676, -22.407428 ], [ -47.564463, -22.406517 ], [ -47.56486, -22.405693 ], [ -47.565069, -22.405224 ], [ -47.565179, -22.404784 ], [ -47.565234, -22.403831 ], [ -47.565141, -22.403148 ], [ -47.565125, -22.403036 ], [ -47.564987, -22.40238 ], [ -47.564903, -22.401984 ], [ -47.564801, -22.401746 ], [ -47.564661, -22.401418 ], [ -47.564535, -22.401124 ], [ -47.564448, -22.400946 ], [ -47.564352, -22.400748 ], [ -47.564252, -22.400541 ], [ -47.564212, -22.40046 ], [ -47.564137, -22.400306 ], [ -47.56396, -22.400022 ], [ -47.563875, -22.399873 ], [ -47.563806, -22.399753 ], [ -47.563744, -22.399647 ], [ -47.563717, -22.399638 ], [ -47.56174, -22.399015 ], [ -47.561114, -22.398811 ], [ -47.560481, -22.398605 ], [ -47.559705, -22.398352 ], [ -47.559674, -22.398439 ], [ -47.55961, -22.398613 ], [ -47.55944, -22.39908 ], [ -47.559417, -22.399717 ], [ -47.559416, -22.399728 ], [ -47.559818, -22.400253 ], [ -47.559195, -22.402688 ], [ -47.558624, -22.404458 ], [ -47.558603, -22.404963 ], [ -47.558619, -22.405578 ], [ -47.558512, -22.405845 ], [ -47.55916, -22.406082 ], [ -47.558468, -22.407819 ], [ -47.557314, -22.410991 ], [ -47.556823, -22.412043 ], [ -47.554608, -22.413751 ], [ -47.553536, -22.414938 ], [ -47.552897, -22.416486 ], [ -47.555295, -22.416933 ] ] ] } }
]
}
